H1 CPF 01  gfz 2021 02 03 13  5342 terrasarx 
H2 0702601  6201 31698    2021 02 03 12 59 42 2021 02 08 00 00 42   120 1 1  0 0 0
H9
10 0 59252  32382.000000  0   -2417949.680   3390752.122   5477276.082
10 0 59252  32502.000000  0   -1801009.841   2913082.271   5966642.727
10 0 59252  32622.000000  0   -1161530.354   2373559.824   6351099.509
10 0 59252  32742.000000  0    -511683.690   1781329.912   6623925.309
10 0 59252  32862.000000  0     136354.666   1146661.319   6780354.859
10 0 59252  32982.000000  0     770634.271    480766.588   6817657.199
10 0 59252  33102.000000  0    1379649.111   -204395.771   6735179.757
10 0 59252  33222.000000  0    1952545.232   -896335.130   6534359.861
10 0 59252  33342.000000  0    2479313.797  -1582255.904   6218701.543
10 0 59252  33462.000000  0    2950967.161  -2249293.434   5793719.365
10 0 59252  33582.000000  0    3359695.087  -2884756.305   5266847.438
10 0 59252  33702.000000  0    3698997.429  -3476369.736   4647315.500
10 0 59252  33822.000000  0    3963791.832  -4012516.346   3945992.717
10 0 59252  33942.000000  0    4150493.722  -4482469.252   3175200.327
10 0 59252  34062.000000  0    4257066.277  -4876612.283   2348496.221
10 0 59252  34182.000000  0    4283039.574  -5186641.757   1480434.168
10 0 59252  34302.000000  0    4229497.294  -5405744.402    586302.338
10 0 59252  34422.000000  0    4099031.013  -5528746.347   -318153.043
10 0 59252  34542.000000  0    3895665.099  -5552231.060  -1217012.638
10 0 59252  34662.000000  0    3624751.326  -5474621.998  -2094474.030
10 0 59252  34782.000000  0    3292837.340  -5296226.882  -2935136.659
10 0 59252  34902.000000  0    2907513.161  -5019244.375  -3724277.828
10 0 59252  35022.000000  0    2477238.240  -4647732.591  -4448112.611
10 0 59252  35142.000000  0    2011154.684  -4187541.292  -5094032.533
10 0 59252  35262.000000  0    1518892.678  -3646209.612  -5650818.627
10 0 59252  35382.000000  0    1010372.431  -3032834.161  -6108826.602
10 0 59252  35502.000000  0     495605.487  -2357910.495  -6460143.434
10 0 59252  35622.000000  0     -15500.237  -1633149.677  -6698713.230
10 0 59252  35742.000000  0    -513327.109   -871273.987  -6820431.141
10 0 59252  35862.000000  0    -988723.544    -85795.746  -6823206.120
10 0 59252  35982.000000  0   -1433168.075    709217.313  -6706992.080
10 0 59252  36102.000000  0   -1838918.619   1499387.362  -6473788.224
10 0 59252  36222.000000  0   -2199144.123   2270280.082  -6127608.177
10 0 59252  36342.000000  0   -2508038.723   3007662.608  -5674419.478
10 0 59252  36462.000000  0   -2760915.920   3697763.959  -5122051.126
10 0 59252  36582.000000  0   -2954281.728   4327532.884  -4480070.286
10 0 59252  36702.000000  0   -3085885.077   4884888.775  -3759626.629
10 0 59252  36822.000000  0   -3154742.740   5358958.614  -2973266.428
10 0 59252  36942.000000  0   -3161139.273   5740295.893  -2134721.601
10 0 59252  37062.000000  0   -3106602.282   6021078.906  -1258673.411
10 0 59252  37182.000000  0   -2993850.428   6195279.588   -360493.457
10 0 59252  37302.000000  0   -2826718.036   6258798.328    544029.055
10 0 59252  37422.000000  0   -2610057.471   6209564.673   1438973.158
10 0 59252  37542.000000  0   -2349617.085   6047594.144   2308578.030
10 0 59252  37662.000000  0   -2051901.244   5775001.076   3137529.469
10 0 59252  37782.000000  0   -1724017.177   5395969.933   3911236.002
10 0 59252  37902.000000  0   -1373512.111   4916685.961   4616090.257
10 0 59252  38022.000000  0   -1008203.887   4345226.316   5239710.721
10 0 59252  38142.000000  0    -636008.691   3691414.697   5771157.783
10 0 59252  38262.000000  0    -264772.719   2966644.176   6201122.041
10 0 59252  38382.000000  0      97890.947   2183670.854   6522081.690
10 0 59252  38502.000000  0     444756.199   1356384.990   6728427.964
10 0 59252  38622.000000  0     769126.341    499561.223   6816557.607
10 0 59252  38742.000000  0    1064961.851   -371405.339   6784930.826
10 0 59252  38862.000000  0    1326991.951  -1240774.629   6634097.694
10 0 59252  38982.000000  0    1550808.520  -2092745.669   6366689.468
10 0 59252  39102.000000  0    1732940.615  -2911743.663   5987376.292
10 0 59252  39222.000000  0    1870908.558  -3682706.638   5502790.485
10 0 59252  39342.000000  0    1963256.357  -4391365.567   4921415.533
10 0 59252  39462.000000  0    2009562.691  -5024512.337   4253443.416
10 0 59252  39582.000000  0    2010431.008  -5570254.046   3510601.776
10 0 59252  39702.000000  0    1967456.326  -6018245.945   2705949.135
10 0 59252  39822.000000  0    1883169.642  -6359895.700   1853644.331
10 0 59252  39942.000000  0    1760963.582  -6588535.750    968694.740
10 0 59252  40062.000000  0    1604998.689  -6699560.225     66686.633
10 0 59252  40182.000000  0    1420092.879  -6690522.676   -836497.128
10 0 59252  40302.000000  0    1211596.213  -6561188.716  -1724968.652
10 0 59252  40422.000000  0     985254.550  -6313541.046  -2583122.638
10 0 59252  40542.000000  0     747067.257  -5951741.168  -3395916.373
10 0 59252  40662.000000  0     503143.477  -5482048.661  -4149136.406
10 0 59252  40782.000000  0     259557.654  -4912700.259  -4829646.698
10 0 59252  40902.000000  0      22209.237  -4253752.778  -5425612.718
10 0 59252  41022.000000  0    -203310.047  -3516894.713  -5926699.661
10 0 59252  41142.000000  0    -411838.720  -2715230.191  -6324241.460
10 0 59252  41262.000000  0    -598755.536  -1863040.897  -6611379.280
10 0 59252  41382.000000  0    -760075.240   -975530.672  -6783168.583
10 0 59252  41502.000000  0    -892528.488    -68556.950  -6836655.857
10 0 59252  41622.000000  0    -993624.660    841647.740  -6770922.920
10 0 59252  41742.000000  0   -1061697.194   1738758.607  -6587100.427
10 0 59252  41862.000000  0   -1095930.639   2606643.927  -6288350.296
10 0 59252  41982.000000  0   -1096368.959   3429648.940  -5879818.603
10 0 59252  42102.000000  0   -1063905.429   4192876.068  -5368556.380
10 0 59252  42222.000000  0   -1000253.463   4882454.961  -4763409.082
10 0 59252  42342.000000  0    -907899.597   5485799.747  -4074874.905
10 0 59252  42462.000000  0    -790038.713   5991846.850  -3314931.758
10 0 59252  42582.000000  0    -650492.422   6391267.847  -2496836.246
10 0 59252  42702.000000  0    -493612.192   6676653.814  -1634896.918
10 0 59252  42822.000000  0    -324169.692   6842664.956   -744224.251
10 0 59252  42942.000000  0    -147235.966   6886141.657    159537.089
10 0 59252  43062.000000  0      31947.393   6806173.487   1060489.404
10 0 59252  43182.000000  0     208101.206   6604122.848   1942771.085
10 0 59252  43302.000000  0     376041.838   6283600.706   2790845.318
10 0 59252  43422.000000  0     530811.474   5850397.700   3589780.417
10 0 59252  43542.000000  0     667803.290   5312373.950   4325517.759
10 0 59252  43662.000000  0     782878.083   4679309.553   4985126.255
10 0 59252  43782.000000  0     872467.259   3962711.063   5557029.626
10 0 59252  43902.000000  0     933663.660   3175594.429   6031204.191
10 0 59252  44022.000000  0     964295.836   2332240.895   6399350.547
10 0 59252  44142.000000  0     962984.114   1447931.954   6655033.021
10 0 59252  44262.000000  0     929178.664    538668.473   6793786.174
10 0 59252  44382.000000  0     863178.594   -379119.280   6813186.922
10 0 59252  44502.000000  0     766131.529  -1288867.245   6712895.461
10 0 59252  44622.000000  0     640013.564  -2174176.552   6494661.411
10 0 59252  44742.000000  0     487589.831  -3019109.227   6162295.860
10 0 59252  44862.000000  0     312356.305  -3808477.343   5721607.434
10 0 59252  44982.000000  0     118464.672  -4528116.800   5180304.577
10 0 59252  45102.000000  0     -89368.331  -5165145.061   4547868.326
10 0 59252  45222.000000  0    -305966.632  -5708200.901   3835393.641
10 0 59252  45342.000000  0    -525814.486  -6147657.652   3055397.505
10 0 59252  45462.000000  0    -743186.339  -6475804.043   2221599.457
10 0 59252  45582.000000  0    -952282.756  -6686988.164   1348677.933
10 0 59252  45702.000000  0   -1147371.210  -6777724.158    452007.675
10 0 59252  45822.000000  0   -1322927.955  -6746754.254   -452620.454
10 0 59252  45942.000000  0   -1473774.978  -6595064.330  -1349286.841
10 0 59252  46062.000000  0   -1595209.821  -6325854.750  -2222231.579
10 0 59252  46182.000000  0   -1683125.579  -5944467.702  -3056138.382
10 0 59252  46302.000000  0   -1734118.041  -5458272.254  -3836408.537
10 0 59252  46422.000000  0   -1745576.782  -4876509.988  -4549417.934
10 0 59252  46542.000000  0   -1715758.171  -4210107.135  -5182751.525
10 0 59252  46662.000000  0   -1643839.490  -3471459.221  -5725412.568
10 0 59252  46782.000000  0   -1529953.032  -2674192.879  -6168004.701
10 0 59252  46902.000000  0   -1375199.587  -1832909.066  -6502884.226
10 0 59252  47022.000000  0   -1181641.673   -962913.964  -6724280.220
10 0 59252  47142.000000  0    -952277.396    -79942.843  -6828383.615
10 0 59252  47262.000000  0    -690994.484    800119.418  -6813405.031
10 0 59252  47382.000000  0    -402505.032   1661516.672  -6679601.724
10 0 59252  47502.000000  0     -92263.342   2488896.108  -6429273.558
10 0 59252  47622.000000  0     233633.320   3267576.141  -6066729.523
10 0 59252  47742.000000  0     568561.145   3983804.952  -5598221.853
10 0 59252  47862.000000  0     905499.537   4625002.943  -5031847.758
10 0 59252  47982.000000  0    1237172.813   5179987.732  -4377421.568
10 0 59252  48102.000000  0    1556202.286   5639177.294  -3646315.027
10 0 59252  48222.000000  0    1855265.025   5994765.043  -2851268.019
10 0 59252  48342.000000  0    2127256.043   6240864.322  -2006172.620
10 0 59252  48462.000000  0    2365450.565   6373618.181  -1125832.076
10 0 59252  48582.000000  0    2563661.936   6391269.654   -225698.683
10 0 59252  48702.000000  0    2716390.968   6294189.863    678403.129
10 0 59252  48822.000000  0    2818962.704   6084863.548   1570562.058
99
